STARLINK-2500           
1 48485U 21040BK  26068.62579050  .00000702  00000+0  35824-4 0  9996
2 48485  53.1601 194.0306 0001337  88.4337 271.6817 15.30194354266457
TOMORROW-S2             
1 60485U 24149T   26068.75188364  .00008133  00000+0  27683-3 0  9990
2 60485  97.3857 150.0385 0001648 234.3331 125.7757 15.30674935 86869
